UKUBE-1
1 40074U 14037F   15092.74925302  .00003490  00000-0  44883-3 0  9995
2 40074 098.3648 161.5971 0005959 123.6946 236.4839 14.81825676 39661
CHASQUI-1
1 40117U 98067ET  15014.73322295  .07508583  12315-4  10026-2 0  9990
2 40117 051.6189 112.4445 0004239 337.2783 022.7551 16.34635278 23368
HODOYOSHI-1
1 40299U 14070B   15092.79887463  .00006768  00000-0  32940-3 0  9993
2 40299 097.4593 175.2794 0014155 041.6016 104.7027 15.18622414 22371
CHUBUSAT-1
1 40300U 14070C   15092.79513321  .00007821  00000-0  39832-3 0  9993
2 40300 097.4564 174.7890 0023400 040.0263 108.2374 15.16825321 22344
QSAT-EOS
1 40301U 14070D   15092.79145938  .00014174  00000-0  73898-3 0  9998
2 40301 097.4532 174.2807 0033721 039.0579 109.2016 15.15574899 22319
TSUBAME
1 40302U 14070E   15092.83461806  .00006276  00000-0  35937-3 0  9995
2 40302 097.4504 173.6615 0044748 039.8582 320.5870 15.12110891 22289
FIREBIRD FU3
1 40377U 15003B   15092.60748030  .00014428  00000-0  73940-3 0  9990
2 40377 099.1234 112.1679 0163828 140.5337 220.7941 15.05726221  9172
FIREBIRD FU4
1 40378U 15003C   15092.60638098  .00014371  00000-0  73560-3 0  9998
2 40378 099.1241 112.1713 0163956 140.4423 220.8878 15.05751400  9174
GRIFEX
1 40379U 15003D   15092.61559680  .00010967  00000-0  56845-3 0  9993
2 40379 099.1244 112.1635 0164258 141.4206 219.8861 15.05389032  9175
