Satellite: UKUBE-1
Catalog number: 40074
Epoch time:      15092.74925302
Element set:     999
Inclination:      098.3648 deg
RA of node:       161.5971 deg
Eccentricity:    0.0005959
Arg of perigee:   123.6946 deg
Mean anomaly:     236.4839 deg
Mean motion:   14.81825676 rev/day
Decay rate:      3.490e-05 rev/day^2
Epoch rev:            3966
Checksum:              351

Satellite: CHASQUI-1
Catalog number: 40117
Epoch time:      15014.73322295
Element set:     999
Inclination:      051.6189 deg
RA of node:       112.4445 deg
Eccentricity:    0.0004239
Arg of perigee:   337.2783 deg
Mean anomaly:     022.7551 deg
Mean motion:   16.34635278 rev/day
Decay rate:   7.508583e-02 rev/day^2
Epoch rev:            2336
Checksum:              310

Satellite: HODOYOSHI-1
Catalog number: 40299
Epoch time:      15092.79887463
Element set:     999
Inclination:      097.4593 deg
RA of node:       175.2794 deg
Eccentricity:    0.0014155
Arg of perigee:   041.6016 deg
Mean anomaly:     104.7027 deg
Mean motion:   15.18622414 rev/day
Decay rate:      6.768e-05 rev/day^2
Epoch rev:            2237
Checksum:              332

Satellite: CHUBUSAT-1
Catalog number: 40300
Epoch time:      15092.79513321
Element set:     999
Inclination:      097.4564 deg
RA of node:       174.7890 deg
Eccentricity:    0.0023400
Arg of perigee:   040.0263 deg
Mean anomaly:     108.2374 deg
Mean motion:   15.16825321 rev/day
Decay rate:      7.821e-05 rev/day^2
Epoch rev:            2234
Checksum:              275

Satellite: QSAT-EOS
Catalog number: 40301
Epoch time:      15092.79145938
Element set:     999
Inclination:      097.4532 deg
RA of node:       174.2807 deg
Eccentricity:    0.0033721
Arg of perigee:   039.0579 deg
Mean anomaly:     109.2016 deg
Mean motion:   15.15574899 rev/day
Decay rate:     1.4174e-04 rev/day^2
Epoch rev:            2231
Checksum:              312

Satellite: TSUBAME
Catalog number: 40302
Epoch time:      15092.83461806
Element set:     999
Inclination:      097.4504 deg
RA of node:       173.6615 deg
Eccentricity:    0.0044748
Arg of perigee:   039.8582 deg
Mean anomaly:     320.5870 deg
Mean motion:   15.12110891 rev/day
Decay rate:      6.276e-05 rev/day^2
Epoch rev:            2228
Checksum:              306

Satellite: FIREBIRD FU3
Catalog number: 40377
Epoch time:      15092.60748030
Element set:     999
Inclination:      099.1234 deg
RA of node:       112.1679 deg
Eccentricity:    0.0163828
Arg of perigee:   140.5337 deg
Mean anomaly:     220.7941 deg
Mean motion:   15.05726221 rev/day
Decay rate:     1.4428e-04 rev/day^2
Epoch rev:             917
Checksum:              301

Satellite: FIREBIRD FU4
Catalog number: 40378
Epoch time:      15092.60638098
Element set:     999
Inclination:      099.1241 deg
RA of node:       112.1713 deg
Eccentricity:    0.0163956
Arg of perigee:   140.4423 deg
Mean anomaly:     220.8878 deg
Mean motion:   15.05751400 rev/day
Decay rate:     1.4371e-04 rev/day^2
Epoch rev:             917
Checksum:              303

Satellite: GRIFEX
Catalog number: 40379
Epoch time:      15092.61559680
Element set:     999
Inclination:      099.1244 deg
RA of node:       112.1635 deg
Eccentricity:    0.0164258
Arg of perigee:   141.4206 deg
Mean anomaly:     219.8861 deg
Mean motion:   15.05389032 rev/day
Decay rate:     1.0967e-04 rev/day^2
Epoch rev:             917
Checksum:              317

